NORAD_CAT_ID,OBJECT_NAME,OBJECT_TYPE,EPOCH,MEAN_MOTION,ECCENTRICITY,INCLINATION,RA_OF_ASC_NODE,ARG_OF_PERICENTER,MEAN_ANOMALY,BSTAR,MEAN_MOTION_DOT,MEAN_MOTION_DDOT,TLE_LINE0,TLE_LINE1,TLE_LINE2,SEMIMAJOR_AXIS,PERIOD,APOGEE,PERIGEE,DECAYED
50172.0,STARLINK-3287,PAYLOAD,2022-01-01 22:00:00,15.82179086,0.0001095,53.2179,294.5262,86.3134,195.155,-0.004351,-0.00830486,0.0,0 STARLINK-3287,1 50172U 21125S   22001.91667824 -.00830486  00000-0 -43510-2 0  9990,2 50172  53.2179 294.5262 0001095  86.3134 195.1550 15.82179086  2762,6702.417,91.014,325.015,323.548,0.0
50172.0,STARLINK-3287,PAYLOAD,2022-01-02 12:00:00,15.81149509,9.42e-05,53.2175,291.6032,98.3586,266.5151,-0.0045255,-0.00823693,0.0,0 STARLINK-3287,1 50172U 21125S   22002.50001157 -.00823693  00000-0 -45255-2 0  9997,2 50172  53.2175 291.6032 0000942  98.3586 266.5151 15.81149509  2862,6705.326,91.073,327.82199999999995,326.559,0.0
50172.0,STARLINK-3287,PAYLOAD,2022-01-04 21:41:57,15.7794506,0.0003511,53.2201,279.60900000000004,196.3112,163.7798,-0.0011064999999999,-0.00187796,0.0,0 STARLINK-3287,1 50172U 21125S   22004.90413876 -.00187796  00000-0 -11065-2 0  9997,2 50172  53.2201 279.6090 0003511 196.3112 163.7798 15.77945060  6085,6714.401,91.258,338.6230000000001,333.908,0.0
50172.0,STARLINK-3287,PAYLOAD,2022-01-06 04:08:47,15.75249953,0.0001819,53.2192,273.3079,98.5767,261.546,-0.0024863,-0.00365956,0.0,0 STARLINK-3287,1 50172U 21125S   22006.17276662 -.00365956  00000-0 -24863-2 0  9994,2 50172  53.2192 273.3079 0001819  98.5767 261.5460 15.75249953  5763,6722.057,91.414,345.145,342.699,0.0
50172.0,STARLINK-3287,PAYLOAD,2022-01-06 05:39:53,15.75901849,0.0002199,53.219,272.9916,215.2951,144.7925,2.6616e-05,3.554e-05,0.0,0 STARLINK-3287,1 50172U 21125S   22006.23603195  .00003554  00000-0  26616-4 0  9997,2 50172  53.2190 272.9916 0002199 215.2951 144.7925 15.75901849  5779,6720.203,91.376,343.546,340.59,0.0
50172.0,STARLINK-3287,PAYLOAD,2022-01-06 14:48:27,15.74996234,0.0001740999999999,53.2192,271.1039,86.681,273.441,-0.0010566,-0.00157943,0.0,0 STARLINK-3287,1 50172U 21125S   22006.61698093 -.00157943  00000-0 -10566-2 0  9999,2 50172  53.2192 271.1039 0001741  86.6810 273.4410 15.74996234  5831,6722.779,91.429,345.814,343.473,0.0
50172.0,STARLINK-3287,PAYLOAD,2022-01-06 22:25:14,15.75083928,0.0003826,53.2189,269.5292,236.3141,123.7515,-0.00075131,-0.00113564,0.0,0 STARLINK-3287,1 50172U 21125S   22006.93419000 -.00113564  00000-0 -75131-3 0  9994,2 50172  53.2189 269.5292 0003826 236.3141 123.7515 15.75083928  6401,6722.529,91.424,346.966,341.82199999999995,0.0
50172.0,STARLINK-3287,PAYLOAD,2022-01-07 01:28:50,15.74229667,0.0005874,53.2173,268.9032,176.7163,183.3897,-0.0014248,-0.00204948,0.0,0 STARLINK-3287,1 50172U 21125S   22007.06170134 -.00204948  00000-0 -14248-2 0  9999,2 50172  53.2173 268.9032 0005874 176.7163 183.3897 15.74229667  5905,6724.9609999999975,91.473,350.776,342.876,0.0
50172.0,STARLINK-3287,PAYLOAD,2022-01-07 06:03:13,15.73877832,0.000181,53.2184,267.959,160.569,199.54,-0.0019598,-0.00274795,0.0,0 STARLINK-3287,1 50172U 21125S   22007.25223719 -.00274795  00000-0 -19598-2 0  9998,2 50172  53.2184 267.9590 0001810 160.5690 199.5400 15.73877832  5931,6725.9630000000025,91.494,349.046,346.611,0.0
50172.0,STARLINK-3287,PAYLOAD,2022-01-09 22:00:00,15.73273356,0.0001083,53.2176,254.7777,90.6285,247.9167,-0.00053072,-0.00074676,0.0,0 STARLINK-3287,1 50172U 21125S   22009.91667824 -.00074676  00000-0 -53072-3 0  9994,2 50172  53.2176 254.7777 0001083  90.6285 247.9167 15.73273356  6354,6727.686,91.529,350.28,348.82199999999995,0.0
50172.0,STARLINK-3287,PAYLOAD,2022-01-10 14:00:01,15.73130321,0.0001141,53.2173,251.4769,103.0703,53.3994,0.00019202,0.00026333,0.0,0 STARLINK-3287,1 50172U 21125S   22010.58334491  .00026333  00000-0  19202-3 0  9992,2 50172  53.2173 251.4769 0001141 103.0703  53.3994 15.73130321  3724,6728.094,91.537,350.727,349.191,0.0
50172.0,STARLINK-3287,PAYLOAD,2022-01-10 22:00:00,15.73147222,0.0001107,53.2176,249.8296,91.8547,153.4668,6.4747e-05,8.456e-05,0.0,0 STARLINK-3287,1 50172U 21125S   22010.91667824  .00008456  00000-0  64747-4 0  9999,2 50172  53.2176 249.8296 0001107  91.8547 153.4668 15.73147222  6513,6728.045999999999,91.536,350.655,349.166,0.0
50172.0,STARLINK-3287,PAYLOAD,2022-01-11 14:00:01,15.73161058,0.0001078,53.2177,246.5291,100.2445,322.8308,0.00043246,0.00060408,0.0,0 STARLINK-3287,1 50172U 21125S   22011.58334491  .00060408  00000-0  43246-3 0  9999,2 50172  53.2177 246.5291 0001078 100.2445 322.8308 15.73161058  3728,6728.005999999999,91.535,350.596,349.146,0.0
50172.0,STARLINK-3287,PAYLOAD,2022-01-11 22:00:00,15.73204051,0.0001082,53.2174,244.8817,87.6302,64.3579,6.7164e-05,8.818e-05,0.0,0 STARLINK-3287,1 50172U 21125S   22011.91667824  .00008818  00000-0  67164-4 0  9998,2 50172  53.2174 244.8817 0001082  87.6302  64.3579 15.73204051  6660,6727.884,91.533,350.477,349.021,0.0
50172.0,STARLINK-3287,PAYLOAD,2022-01-12 14:00:01,15.73244163,0.0001163,53.2171,241.5809,101.3356,228.5392,-0.00028398,-0.00040358,0.0,0 STARLINK-3287,1 50172U 21125S   22012.58334491 -.00040358  00000-0 -28398-3 0  9995,2 50172  53.2171 241.5809 0001163 101.3356 228.5392 15.73244163  3735,6727.769,91.531,350.417,348.852,0.0
50172.0,STARLINK-3287,PAYLOAD,2022-01-12 22:00:00,15.73192573,0.0001306,53.2173,239.9336,89.7238,329.1132,8.749200000000001e-05,0.00011672,0.0,0 STARLINK-3287,1 50172U 21125S   22012.91667824  .00011672  00000-0  87492-4 0  9997,2 50172  53.2173 239.9336 0001306  89.7238 329.1132 15.73192573  6820,6727.916,91.534,350.66,348.903,0.0
50172.0,STARLINK-3287,PAYLOAD,2022-01-13 14:00:01,15.73239523,0.0001406,53.2174,236.6328,97.1838,139.5101,-0.00032502,-0.00046063,0.0,0 STARLINK-3287,1 50172U 21125S   22013.58334491 -.00046063  00000-0 -32502-3 0  9997,2 50172  53.2174 236.6328 0001406  97.1838 139.5101 15.73239523  3739,6727.781999999997,91.531,350.593,348.702,0.0
50172.0,STARLINK-3287,PAYLOAD,2022-01-13 22:00:00,15.73184381,0.0001575,53.217,234.9854,86.64399999999998,239.0219,0.00012824,0.00017403,0.0,0 STARLINK-3287,1 50172U 21125S   22013.91667824  .00017403  00000-0  12824-3 0  9992,2 50172  53.2170 234.9854 0001575  86.6440 239.0219 15.73184381  3703,6727.94,91.534,350.86400000000015,348.745,0.0
50172.0,STARLINK-3287,PAYLOAD,2022-01-14 06:00:00,15.73332048,8.78e-05,53.2168,233.3295,89.0835,325.541,-0.0042185,-0.00558084,0.0,0 STARLINK-3287,1 50172U 21125S   22014.25001157 -.00558084  00000-0 -42185-2 0  9990,2 50172  53.2168 233.3295 0000878  89.0835 325.5410 15.73332048  7031,6727.519,91.525,349.974,348.793,0.0
50172.0,STARLINK-3287,PAYLOAD,2022-01-14 14:00:01,15.73244874,0.0001157,53.2166,231.6846,100.5925,42.9784,-0.00033081,-0.00046877,0.0,0 STARLINK-3287,1 50172U 21125S   22014.58334491 -.00046877  00000-0 -33081-3 0  9994,2 50172  53.2166 231.6846 0001157 100.5925  42.9784 15.73244874  7080,6727.767,91.531,350.411,348.85400000000016,0.0
50172.0,STARLINK-3287,PAYLOAD,2022-01-14 22:00:00,15.73179452,0.000123,53.2167,230.0372,85.2007,147.3462,0.00022357,0.00030844,0.0,0 STARLINK-3287,1 50172U 21125S   22014.91667824  .00030844  00000-0  22357-3 0  9999,2 50172  53.2167 230.0372 0001230  85.2007 147.3462 15.73179452  3729,6727.954000000002,91.534,350.646,348.991,0.0
50172.0,STARLINK-3287,PAYLOAD,2022-01-15 06:00:00,15.73250746,0.0001052,53.2166,228.3868,87.5873,233.8741,-0.00048563,-0.00068369,0.0,0 STARLINK-3287,1 50172U 21125S   22015.25001157 -.00068369  00000-0 -48563-3 0  9990,2 50172  53.2166 228.3868 0001052  87.5873 233.8741 15.73250746  7198,6727.75,91.53,350.3230000000001,348.908,0.0
50172.0,STARLINK-3287,PAYLOAD,2022-01-15 14:00:01,15.7332538,0.0001146,53.217,226.7311,86.5477,323.8568,-0.0018016,-0.00247488,0.0,0 STARLINK-3287,1 50172U 21125S   22015.58335648 -.00247488  00000-0 -18016-2 0  9991,2 50172  53.2170 226.7311 0001146  86.5477 323.8568 15.73325380  3720,6727.538000000001,91.526,350.1740000000001,348.63199999999995,0.0
50172.0,STARLINK-3287,PAYLOAD,2022-01-15 22:00:01,15.73174919,0.0001166,53.2162,225.0889,79.7924,59.5971,0.0002196,0.00030277,0.0,0 STARLINK-3287,1 50172U 21125S   22015.91668981  .00030277  00000-0  21960-3 0  9994,2 50172  53.2162 225.0889 0001166  79.7924  59.5971 15.73174919  7293,6727.967,91.535,350.616,349.047,0.0
50172.0,STARLINK-3287,PAYLOAD,2022-01-16 14:00:01,15.73196336,9.69e-05,53.2158,221.788,95.9457,221.25,0.00032897,0.00045793,0.0,0 STARLINK-3287,1 50172U 21125S   22016.58334491  .00045793  00000-0  32897-3 0  9994,2 50172  53.2158 221.7880 0000969  95.9457 221.2500 15.73196336  3719,6727.906,91.533,350.423,349.119,0.0
50172.0,STARLINK-3287,PAYLOAD,2022-01-16 22:00:00,15.73204472,0.0001017,53.216,220.1407,78.7989,327.3123,-0.00038719,-0.00054616,0.0,0 STARLINK-3287,1 50172U 21125S   22016.91667824 -.00054616  00000-0 -38719-3 0  9995,2 50172  53.2160 220.1407 0001017  78.7989 327.3123 15.73204472  3714,6727.882,91.533,350.432,349.06300000000016,0.0
50172.0,STARLINK-3287,PAYLOAD,2022-01-17 00:00:00,15.73156234,9.990000000000004e-05,53.216,219.7285,74.2813,84.0741,0.00024964,0.00034494,0.0,0 STARLINK-3287,1 50172U 21125S   22017.00001157  .00034494  00000-0  24964-3 0  9994,2 50172  53.2160 219.7285 0000999  74.2813  84.0741 15.73156234  7479,6728.02,91.536,350.557,349.213,0.0
50172.0,STARLINK-3287,PAYLOAD,2022-01-17 14:00:01,15.73152817,9.3e-05,53.2161,216.8398,88.9485,134.9538,3.0067e-05,3.594e-05,0.0,0 STARLINK-3287,1 50172U 21125S   22017.58334491  .00003594  00000-0  30067-4 0  9996,2 50172  53.2161 216.8398 0000930  88.9485 134.9538 15.73152817  7567,6728.03,91.536,350.52,349.269,0.0
50172.0,STARLINK-3287,PAYLOAD,2022-01-17 22:00:00,15.73129578,9.61e-05,53.2158,215.1925,70.5288,242.2388,0.00039182,0.00054561,0.0,0 STARLINK-3287,1 50172U 21125S   22017.91667824  .00054561  00000-0  39182-3 0  9998,2 50172  53.2158 215.1925 0000961  70.5288 242.2388 15.73129578  3709,6728.096,91.537,350.608,349.314,0.0
